BLUEWALKER-3            
1 53807U 22111AL  26198.12803750  .00002487  00000+0  74460-4 0  9997
2 53807  53.2277 253.3696 0004571 275.2529  84.7955 15.38622140214810
